CSS (TIANHE)            
1 48274U 21035A   23306.92479008  .00036033  00000+0  42246-3 0  9994
2 48274  41.4726  31.2402 0003676  25.7801 334.3220 15.60775768143522
